{
    "links": {
        "self": "http://www.neowsapp.com/rest/v1/neo/3802001?api_key=iIulBulltgU6a56xZRHN4H3l9WmuAYTsLGpBGhQ2"
    },
    "id": "3802001",
    "neo_reference_id": "3802001",
    "name": "(2018 FR1)",
    "designation": "2018 FR1",
    "nasa_jpl_url": "http://ssd.jpl.nasa.gov/sbdb.cgi?sstr=3802001",
    "absolute_magnitude_h": 26.6,
    "estimated_diameter": {
        "kilometers": {
            "estimated_diameter_min": 0.0127219879,
            "estimated_diameter_max": 0.0284472297
        },
        "meters": {
            "estimated_diameter_min": 12.7219878539,
            "estimated_diameter_max": 28.4472296503
        },
        "miles": {
            "estimated_diameter_min": 0.0079050743,
            "estimated_diameter_max": 0.0176762835
        },
        "feet": {
            "estimated_diameter_min": 41.7388066307,
            "estimated_diameter_max": 93.330808926
        }
    },
    "is_potentially_hazardous_asteroid": false,
    "close_approach_data": [
        {
            "close_approach_date": "2015-09-08",
            "close_approach_date_full": "2015-Sep-08 07:23",
            "epoch_date_close_approach": 1441696980000,
            "relative_velocity": {
                "kilometers_per_second": "14.0651193165",
                "kilometers_per_hour": "50634.4295395624",
                "miles_per_hour": "31462.2653991797"
            },
            "miss_distance": {
                "astronomical": "0.071919579",
                "lunar": "27.976716231",
                "kilometers": "10759015.82969673",
                "miles": "6685342.433125674"
            },
            "orbiting_body": "Mars"
        },
        {
            "close_approach_date": "2018-03-26",
            "close_approach_date_full": "2018-Mar-26 03:42",
            "epoch_date_close_approach": 1522035720000,
            "relative_velocity": {
                "kilometers_per_second": "12.1993533502",
                "kilometers_per_hour": "43917.6720607247",
                "miles_per_hour": "27288.7335090653"
            },
            "miss_distance": {
                "astronomical": "0.0158121739",
                "lunar": "6.1509356471",
                "kilometers": "2365467.535509593",
                "miles": "1469833.3694866634"
            },
            "orbiting_body": "Earth"
        }
    ],
    "orbital_data": {
        "orbit_id": "2",
        "orbit_determination_date": "2018-03-22 06:23:32",
        "first_observation_date": "2018-03-17",
        "last_observation_date": "2018-03-22",
        "data_arc_in_days": 5,
        "observations_used": 33,
        "orbit_uncertainty": "8",
        "minimum_orbit_intersection": ".00852021",
        "jupiter_tisserand_invariant": "3.980",
        "epoch_osculation": "2458195.5",
        "eccentricity": ".5011426907324944",
        "semi_major_axis": "1.746284150783147",
        "inclination": "4.121198721915699",
        "ascending_node_longitude": "359.976589428383",
        "orbital_period": "842.8897943081286",
        "perihelion_distance": ".8711466126761717",
        "perihelion_argument": "238.7152806209236",
        "aphelion_distance": "2.621421688890122",
        "perihelion_time": "2458242.839492384432",
        "mean_anomaly": "339.7812034580579",
        "mean_motion": ".4271020985554817",
        "equinox": "J2000",
        "orbit_class": {
            "orbit_class_type": "APO",
            "orbit_class_description": "Near-Earth asteroid orbits which cross the Earth’s orbit similar to that of 1862 Apollo",
            "orbit_class_range": "a (semi-major axis) > 1.0 AU; q (perihelion) < 1.017 AU"
        }
    },
    "is_sentry_object": false
}